%
(Calibration TCPC fixed tip check)
(Enable TCPC and verify the tip stays fixed while B and C change)
G17 G21 G40 G49 G54 G61 G80 G90 G94
F1200
G69
G0 X1500.000 Y850.000 Z-600.000 B0.000 C0.000
M0 (Start at B0 C0 before TCPC)
G43.4
M0 (TCPC on, verify start target)
G1 X1500.000 Y850.000 Z-600.000 B45.000 C0.000
M0 (Check fixed tip at B plus 45)
G1 X1500.000 Y850.000 Z-600.000 B45.000 C90.000
M0 (Check fixed tip at B45 C90)
G1 X1500.000 Y850.000 Z-600.000 B0.000 C180.000
M0 (Check fixed tip at C180)
G1 X1500.000 Y850.000 Z-600.000 B-30.000 C-90.000
M0 (Check fixed tip at mixed negative pose)
G1 X1500.000 Y850.000 Z-600.000 B0.000 C0.000
M0 (Return to start target)
G49.1
M0 (TCPC off)
M2
%
