%
(Head-head B-harmonic simulation-only fixed-tip sequence)
(Use only with the head-head sim. Do not run on the real machine.)
(Purpose: hold one TCP XYZ target while B/C changes through the calibration poses.)
(Run once with sim-bharm-enable false, then again with it true in simulation.)

G17 G21 G40 G49 G54 G61 G80 G90 G94
G43.4

G0 X1500.000 Y850.000 Z-600.000 B0.000 C0.000
G1 X1500.000 Y850.000 Z-600.000 B0.000 C0.000 F900.0

(C0 B-angle scaling poses)
G1 X1500.000 Y850.000 Z-600.000 B30.000 C0.000 F900.0
G1 X1500.000 Y850.000 Z-600.000 B-30.000 C0.000 F900.0
G1 X1500.000 Y850.000 Z-600.000 B60.000 C0.000 F900.0
G1 X1500.000 Y850.000 Z-600.000 B-60.000 C0.000 F900.0
G1 X1500.000 Y850.000 Z-600.000 B90.000 C0.000 F900.0
G1 X1500.000 Y850.000 Z-600.000 B-90.000 C0.000 F900.0
G1 X1500.000 Y850.000 Z-600.000 B0.000 C0.000 F900.0

(B90 quadrant poses)
G1 X1500.000 Y850.000 Z-600.000 B90.000 C90.000 F900.0
G1 X1500.000 Y850.000 Z-600.000 B-90.000 C90.000 F900.0
G1 X1500.000 Y850.000 Z-600.000 B0.000 C90.000 F900.0
G1 X1500.000 Y850.000 Z-600.000 B90.000 C180.000 F900.0
G1 X1500.000 Y850.000 Z-600.000 B-90.000 C180.000 F900.0
G1 X1500.000 Y850.000 Z-600.000 B0.000 C180.000 F900.0
G1 X1500.000 Y850.000 Z-600.000 B90.000 C270.000 F900.0
G1 X1500.000 Y850.000 Z-600.000 B-90.000 C270.000 F900.0
G1 X1500.000 Y850.000 Z-600.000 B0.000 C270.000 F900.0

G1 X1500.000 Y850.000 Z-600.000 B0.000 C0.000 F900.0
M2
%
