%
(Fresh TCPC demo)
(TCPC on, fixed tip checks, short motion, TCPC off)
G17 G21 G40 G49 G54 G61 G80 G90 G94
F1200
G0 X1500.000 Y850.000 Z-600.000 B0.000 C0.000
M0 (Start pose reached)
G43.4
M0 (TCPC enabled)
G1 X1500.000 Y850.000 Z-600.000 B45.000 C0.000
M0 (Fixed-tip B plus 45)
G1 X1500.000 Y850.000 Z-600.000 B45.000 C90.000
M0 (Fixed-tip C plus 90)
G1 X1500.000 Y850.000 Z-600.000 B-30.000 C180.000
M0 (Fixed-tip combined B/C)
G1 X1600.000 Y850.000 Z-600.000 B-30.000 C180.000
M0 (World plus X with TCPC active)
G1 X1600.000 Y950.000 Z-560.000 B20.000 C180.000
M0 (Combined XYZ and B move)
G1 X1500.000 Y850.000 Z-600.000 B0.000 C0.000
M0 (Return to start pose)
G49.1
M0 (TCPC cancelled)
M2
%
