%
(TWP manual B/C entry demo)
(Expected behavior:)
(Step 1: With TCPC on and TWP off, manual B/C motion is allowed.)
(Step 2: Enter G68.2 after B/C is positioned. Omit B/C words to capture current orientation.)
(Step 3: While TWP is active, B/C motion is blocked until G69.)
G17 G21 G40 G49 G54 G61 G80 G90 G94
F1200
G0 X1500.000 Y850.000 Z-600.000 B0.000 C0.000
M0 (Home orientation world pose)
G43.4
M0 (TCPC enabled; TWP still off)
G0 X1500.000 Y850.000 Z-600.000 B45.000 C90.000
M0 (Manual B/C move with TCPC on and TWP off)
G68.2
M0 (TWP entered from current B/C)
G1 X150.0
M0 (Local +U move complete)
G69
M0 (TWP cancelled; B/C can move again)
G0 X1500.000 Y850.000 Z-600.000 B30.000 C45.000
M0 (Second manual B/C move after G69)
G68.2
M0 (TWP re-entered from second B/C position)
G1 X100.0
M0 (Second local +U move complete)
G69
M0 (TWP cancelled again)
G49.1
M0 (TCPC disabled)
M2
%
