%
(Fresh G68.2 TWP demo)
(TCPC on, G68.2 on, local moves, G69, TCPC off)
G17 G21 G40 G49 G54 G61 G80 G90 G94
F1200
G0 X1500.000 Y850.000 Z-600.000 B45.000 C90.000
M0 (Start tilted world pose)
G43.4
M0 (TCPC enabled)
G68.2 B45.0 C90.0
M0 (TWP active; X/Y/Z are now local plane moves)
G0 X100.0 Y0.0 Z0.0
M0 (Local plus U rapid)
G1 X100.0 Y120.0 Z0.0
M0 (Local plus V feed move)
G1 X100.0 Y120.0 Z40.0
M0 (Local plus W feed move)
G1 X0.0 Y0.0 Z0.0
M0 (Return to local origin)
G69
M0 (TWP cancelled; world motion restored)
G49.1
M0 (TCPC cancelled)
M2
%
